[Satellite]
VERSION=1.1
NAME=NEOSSAT
NICKNAME=NEOSSAT
TLE1=1 39089U 13009D   19316.65071465  .00000018  00000-0  21595-4 0  9991
TLE2=2 39089  98.4813 157.6646 0010665 210.2846 149.7724 14.34482453351337
STATUS=0
